ONEWEB-0363             
1 49289U 21090L   25098.77519411  .00000008  00000+0 -11870-4 0  9992
2 49289  87.9329   0.9181 0002173  87.8785 272.2597 13.20770884173798
ONEWEB-0364             
1 49290U 21090M   25098.43428614  .00000153  00000+0  34476-3 0  9997
2 49290  87.9333   1.0148 0002021  80.8397 279.2965 13.20770374174054
ONEWEB-0365             
1 49291U 21090N   25098.83229761  .00000041  00000+0  69189-4 0  9990
2 49291  87.9245  31.2813 0001893  75.4941 284.6402 13.19725378170427
ONEWEB-0366             
1 49292U 21090P   25098.27050506 -.00000094  00000+0 -28914-3 0  9998
2 49292  87.9094  16.2109 0002029  81.3331 278.8028 13.14503021170425
ONEWEB-0367             
1 49293U 21090Q   25098.77360924  .00000020  00000+0  16967-4 0  9995
2 49293  87.9329   0.9135 0001687  73.2533 286.8786 13.20770691173787
ONEWEB-0368             
1 49294U 21090R   25098.44376054  .00000091  00000+0  19270-3 0  9998
2 49294  87.9333   1.0116 0002659  73.0604 287.0821 13.20772800173597
ONEWEB-0369             
1 49295U 21090S   25098.37264681 -.00000206  00000+0 -54755-3 0  9990
2 49295  87.9253  31.3957 0001934  76.1216 284.0132 13.19725373169066
ONEWEB-0370             
1 49296U 21090T   25098.17703161  .00000011  00000+0 -57228-5 0  9993
2 49296  87.9331   1.0368 0001497  81.6035 278.5268 13.20770029172442
